[{"OBJECT_NAME":"KUIPER-00053","OBJECT_ID":"2025-134P","EPOCH":"2026-03-09T15:23:04.985088","MEAN_MOTION":14.79936457,"ECCENTRICITY":7.06e-5,"INCLINATION":51.9009,"RA_OF_ASC_NODE":223.311,"ARG_OF_PERICENTER":157.9369,"MEAN_ANOMALY":202.1623,"EPHEMERIS_TYPE":0,"CLASSIFICATION_TYPE":"U","NORAD_CAT_ID":64513,"ELEMENT_SET_NO":999,"REV_AT_EPOCH":4020,"BSTAR":0.00042309,"MEAN_MOTION_DOT":3.006e-5,"MEAN_MOTION_DDOT":0},{"OBJECT_NAME":"ELECTRON KICK STAGE R\/B","OBJECT_ID":"2025-028A","EPOCH":"2026-03-09T17:13:06.018528","MEAN_MOTION":14.88776809,"ECCENTRICITY":0.00403458,"INCLINATION":97.9006,"RA_OF_ASC_NODE":129.2142,"ARG_OF_PERICENTER":174.9077,"MEAN_ANOMALY":185.2558,"EPHEMERIS_TYPE":0,"CLASSIFICATION_TYPE":"U","NORAD_CAT_ID":62928,"ELEMENT_SET_NO":999,"REV_AT_EPOCH":5854,"BSTAR":0.00040796816,"MEAN_MOTION_DOT":3.817e-5,"MEAN_MOTION_DDOT":0}]
